{
  "norad_id": 63187,
  "name": "STARLINK-11622 [DTC]",
  "history": [
    {
      "epoch": "2026-03-28T16:20:17.498976Z",
      "apogee_km": 357.7454682417847,
      "perigee_km": 354.28680719025306,
      "latitude_deg": 1.6952139343937176e-05,
      "longitude_deg": 134.6413840436103,
      "height_km": 355.9533679554887,
      "semi_major_axis_km": 6734.153137716018,
      "eccentricity": 0.0002568,
      "inclination_deg": 43.0012,
      "raan_deg": 205.812,
      "arg_perigee_deg": 264.5643,
      "mean_anomaly_deg": 95.4932,
      "mean_motion_rev_day": 15.71007577
    }
  ]
}